start=new Date('2023-05-12T00:00:00.000Z').valueOf();
sats=[{"LAUNCH_DATE":"2020-10-24","PERIOD":"95.589","MEAN_ELEMENT_THEORY":"SGP4","CLASSIFICATION_TYPE":"U","PERIAPSIS":"546.616","SITE":"AFETR","MEAN_MOTION_DDOT":"0.0000000000000","NORAD_CAT_ID":"46789","ELEMENT_SET_NO":"999","BSTAR":"0.00215870000000","MEAN_MOTION_DOT":"0.00032056","EPOCH":"2023-05-11T17:23:28.679136","MEAN_MOTION":"15.06442357","TLE_LINE2":"2 46789  53.0531 278.9399 0000675  72.1812 287.9251 15.06442357140982","REF_FRAME":"TEME","APOAPSIS":"547.551","EPHEMERIS_TYPE":"0","RA_OF_ASC_NODE":"278.9399","SEMIMAJOR_AXIS":"6925.219","OBJECT_TYPE":"PAYLOAD","COUNTRY_CODE":"US","INCLINATION":"53.0531","GP_ID":"231633708","FILE":"3905576","DECAY_DATE":null,"MEAN_ANOMALY":"287.9251","RCS_SIZE":"LARGE","OBJECT_ID":"2020-074BC","ECCENTRICITY":"0.00006750","REV_AT_EPOCH":"14098","TLE_LINE1":"1 46789U 20074BC  23131.72463749  .00032056  00000-0  21587-2 0  9990","ARG_OF_PERICENTER":"72.1812","OBJECT_NAME":"STARLINK-1930","TIME_SYSTEM":"UTC","CENTER_NAME":"EARTH"},{"MEAN_MOTION":"15.06445651","TLE_LINE2":"2 46790  53.0541 278.9437 0001027  93.1579 266.9527 15.06445651140975","REF_FRAME":"TEME","APOAPSIS":"547.785","MEAN_MOTION_DOT":"0.00031315","BSTAR":"0.00210930000000","EPOCH":"2023-05-11T16:30:21.539520","NORAD_CAT_ID":"46790","ELEMENT_SET_NO":"999","MEAN_ELEMENT_THEORY":"SGP4","PERIOD":"95.589","LAUNCH_DATE":"2020-10-24","MEAN_MOTION_DDOT":"0.0000000000000","SITE":"AFETR","PERIAPSIS":"546.362","CLASSIFICATION_TYPE":"U","TIME_SYSTEM":"UTC","CENTER_NAME":"EARTH","TLE_LINE1":"1 46790U 20074BD  23131.68774930  .00031315  00000-0  21093-2 0  9993","OBJECT_NAME":"STARLINK-1931","ARG_OF_PERICENTER":"93.1579","REV_AT_EPOCH":"14097","ECCENTRICITY":"0.00010270","OBJECT_ID":"2020-074BD","INCLINATION":"53.0541","COUNTRY_CODE":"US","OBJECT_TYPE":"PAYLOAD","SEMIMAJOR_AXIS":"6925.209","EPHEMERIS_TYPE":"0","RA_OF_ASC_NODE":"278.9437","RCS_SIZE":"LARGE","DECAY_DATE":null,"MEAN_ANOMALY":"266.9527","FILE":"3905576","GP_ID":"231634459"},{"REF_FRAME":"TEME","APOAPSIS":"547.776","MEAN_MOTION":"15.06447525","TLE_LINE2":"2 46791  53.0535 278.8761 0001023  93.8747 266.2359 15.06447525140987","EPOCH":"2023-05-11T16:51:35.530848","MEAN_MOTION_DOT":"0.00031073","BSTAR":"0.00209310000000","ELEMENT_SET_NO":"999","NORAD_CAT_ID":"46791","MEAN_MOTION_DDOT":"0.0000000000000","PERIAPSIS":"546.359","SITE":"AFETR","CLASSIFICATION_TYPE":"U","MEAN_ELEMENT_THEORY":"SGP4","PERIOD":"95.589","LAUNCH_DATE":"2020-10-24","CENTER_NAME":"EARTH","TIME_SYSTEM":"UTC","OBJECT_NAME":"STARLINK-1933","ARG_OF_PERICENTER":"93.8747","TLE_LINE1":"1 46791U 20074BE  23131.70249457  .00031073  00000-0  20931-2 0  9999","REV_AT_EPOCH":"14098","OBJECT_ID":"2020-074BE","ECCENTRICITY":"0.00010230","RCS_SIZE":"LARGE","DECAY_DATE":null,"MEAN_ANOMALY":"266.2359","FILE":"3905576","GP_ID":"231634211","INCLINATION":"53.0535","COUNTRY_CODE":"US","OBJECT_TYPE":"PAYLOAD","EPHEMERIS_TYPE":"0","SEMIMAJOR_AXIS":"6925.203","RA_OF_ASC_NODE":"278.8761"},{"CENTER_NAME":"EARTH","TIME_SYSTEM":"UTC","OBJECT_NAME":"STARLINK-1934","ARG_OF_PERICENTER":"96.5854","TLE_LINE1":"1 46792U 20074BF  23131.66286215  .00030956  00000-0  20850-2 0  9997","REV_AT_EPOCH":"14111","OBJECT_ID":"2020-074BF","ECCENTRICITY":"0.00012010","RCS_SIZE":"LARGE","DECAY_DATE":null,"MEAN_ANOMALY":"263.5272","FILE":"3905576","GP_ID":"231632959","INCLINATION":"53.0545","COUNTRY_CODE":"US","OBJECT_TYPE":"PAYLOAD","SEMIMAJOR_AXIS":"6925.185","EPHEMERIS_TYPE":"0","RA_OF_ASC_NODE":"269.0547","APOAPSIS":"547.881","REF_FRAME":"TEME","MEAN_MOTION":"15.06453453","TLE_LINE2":"2 46792  53.0545 269.0547 0001201  96.5854 263.5272 15.06453453141117","EPOCH":"2023-05-11T15:54:31.289760","MEAN_MOTION_DOT":"0.00030956","BSTAR":"0.00208500000000","ELEMENT_SET_NO":"999","NORAD_CAT_ID":"46792","MEAN_MOTION_DDOT":"0.0000000000000","SITE":"AFETR","PERIAPSIS":"546.218","CLASSIFICATION_TYPE":"U","MEAN_ELEMENT_THEORY":"SGP4","PERIOD":"95.589","LAUNCH_DATE":"2020-10-24"},{"REV_AT_EPOCH":"14097","OBJECT_ID":"2020-074BG","ECCENTRICITY":"0.00011270","INCLINATION":"53.0541","COUNTRY_CODE":"US","OBJECT_TYPE":"PAYLOAD","RA_OF_ASC_NODE":"278.9262","SEMIMAJOR_AXIS":"6925.213","EPHEMERIS_TYPE":"0","RCS_SIZE":"LARGE","MEAN_ANOMALY":"264.7328","DECAY_DATE":null,"FILE":"3905576","GP_ID":"231633209","TIME_SYSTEM":"UTC","CENTER_NAME":"EARTH","TLE_LINE1":"1 46793U 20074BG  23131.69143590  .00030816  00000-0  20762-2 0  9996","OBJECT_NAME":"STARLINK-1941","ARG_OF_PERICENTER":"95.3789","NORAD_CAT_ID":"46793","ELEMENT_SET_NO":"999","MEAN_ELEMENT_THEORY":"SGP4","LAUNCH_DATE":"2020-10-24","PERIOD":"95.589","MEAN_MOTION_DDOT":"0.0000000000000","PERIAPSIS":"546.297","SITE":"AFETR","CLASSIFICATION_TYPE":"U","MEAN_MOTION":"15.06444336","TLE_LINE2":"2 46793  53.0541 278.9262 0001127  95.3789 264.7328 15.06444336140976","REF_FRAME":"TEME","APOAPSIS":"547.858","MEAN_MOTION_DOT":"0.00030816","BSTAR":"0.00207620000000","EPOCH":"2023-05-11T16:35:40.061760"},{"APOAPSIS":"547.970","REF_FRAME":"TEME","TLE_LINE2":"2 46794  53.0544 278.8946 0001266  44.9829 315.1262 15.06439386140985","MEAN_MOTION":"15.06439386","EPOCH":"2023-05-11T16:46:16.788288","BSTAR":"0.00207200000000","MEAN_MOTION_DOT":"0.00030749","ELEMENT_SET_NO":"999","NORAD_CAT_ID":"46794","SITE":"AFETR","PERIAPSIS":"546.216","MEAN_MOTION_DDOT":"0.0000000000000","CLASSIFICATION_TYPE":"U","MEAN_ELEMENT_THEORY":"SGP4","LAUNCH_DATE":"2020-10-24","PERIOD":"95.590","CENTER_NAME":"EARTH","TIME_SYSTEM":"UTC","OBJECT_NAME":"STARLINK-1942","ARG_OF_PERICENTER":"44.9829","TLE_LINE1":"1 46794U 20074BH  23131.69880542  .00030749  00000-0  20720-2 0  9991","REV_AT_EPOCH":"14098","OBJECT_ID":"2020-074BH","ECCENTRICITY":"0.00012660","MEAN_ANOMALY":"315.1262","DECAY_DATE":null,"RCS_SIZE":"LARGE","GP_ID":"231633961","FILE":"3905576","COUNTRY_CODE":"US","INCLINATION":"53.0544","RA_OF_ASC_NODE":"278.8946","EPHEMERIS_TYPE":"0","SEMIMAJOR_AXIS":"6925.228","OBJECT_TYPE":"PAYLOAD"},{"TLE_LINE1":"1 46796U 20074BK  23131.60757996  .00021935  00000-0  14858-2 0  9992","ARG_OF_PERICENTER":"102.9792","OBJECT_NAME":"STARLINK-1944","TIME_SYSTEM":"UTC","CENTER_NAME":"EARTH","RA_OF_ASC_NODE":"269.3012","EPHEMERIS_TYPE":"0","SEMIMAJOR_AXIS":"6925.264","OBJECT_TYPE":"PAYLOAD","COUNTRY_CODE":"US","INCLINATION":"53.0532","GP_ID":"231634709","FILE":"3905576","MEAN_ANOMALY":"257.1319","DECAY_DATE":null,"RCS_SIZE":"LARGE","ECCENTRICITY":"0.00010940","OBJECT_ID":"2020-074BK","REV_AT_EPOCH":"14110","BSTAR":"0.00148580000000","MEAN_MOTION_DOT":"0.00021935","EPOCH":"2023-05-11T14:34:54.908544","MEAN_MOTION":"15.06427516","TLE_LINE2":"2 46796  53.0532 269.3012 0001094 102.9792 257.1319 15.06427516141101","APOAPSIS":"547.887","REF_FRAME":"TEME","LAUNCH_DATE":"2020-10-24","PERIOD":"95.590","MEAN_ELEMENT_THEORY":"SGP4","CLASSIFICATION_TYPE":"U","SITE":"AFETR","PERIAPSIS":"546.372","MEAN_MOTION_DDOT":"0.0000000000000","NORAD_CAT_ID":"46796","ELEMENT_SET_NO":"999"},{"OBJECT_NAME":"STARLINK-1948","ARG_OF_PERICENTER":"90.4581","TLE_LINE1":"1 46798U 20074BM  23131.70569439  .00029583  00000-0  19943-2 0  9995","CENTER_NAME":"EARTH","TIME_SYSTEM":"UTC","DECAY_DATE":null,"MEAN_ANOMALY":"269.6515","RCS_SIZE":"LARGE","GP_ID":"231633459","FILE":"3905576","COUNTRY_CODE":"US","INCLINATION":"53.0541","EPHEMERIS_TYPE":"0","RA_OF_ASC_NODE":"293.8648","SEMIMAJOR_AXIS":"6925.216","OBJECT_TYPE":"PAYLOAD","REV_AT_EPOCH":"14077","OBJECT_ID":"2020-074BM","ECCENTRICITY":"0.00009310","EPOCH":"2023-05-11T16:56:11.995296","BSTAR":"0.00199430000000","MEAN_MOTION_DOT":"0.00029583","APOAPSIS":"547.726","REF_FRAME":"TEME","TLE_LINE2":"2 46798  53.0541 293.8648 0000931  90.4581 269.6515 15.06443131140775","MEAN_MOTION":"15.06443131","SITE":"AFETR","PERIAPSIS":"546.437","MEAN_MOTION_DDOT":"0.0000000000000","CLASSIFICATION_TYPE":"U","MEAN_ELEMENT_THEORY":"SGP4","LAUNCH_DATE":"2020-10-24","PERIOD":"95.589","ELEMENT_SET_NO":"999","NORAD_CAT_ID":"46798"},{"RCS_SIZE":"LARGE","DECAY_DATE":null,"MEAN_ANOMALY":"261.0272","FILE":"3905576","GP_ID":"231633489","INCLINATION":"53.0531","COUNTRY_CODE":"US","OBJECT_TYPE":"PAYLOAD","SEMIMAJOR_AXIS":"6925.206","RA_OF_ASC_NODE":"259.0701","EPHEMERIS_TYPE":"0","REV_AT_EPOCH":"13613","ECCENTRICITY":"0.00007780","OBJECT_ID":"2020-088A","OBJECT_NAME":"STARLINK-1777","ARG_OF_PERICENTER":"99.0805","TLE_LINE1":"1 47122U 20088A   23131.66010091  .00030254  00000-0  20387-2 0  9993","CENTER_NAME":"EARTH","TIME_SYSTEM":"UTC","MEAN_MOTION_DDOT":"0.0000000000000","PERIAPSIS":"546.532","SITE":"AFETR","CLASSIFICATION_TYPE":"U","MEAN_ELEMENT_THEORY":"SGP4","LAUNCH_DATE":"2020-11-25","PERIOD":"95.589","ELEMENT_SET_NO":"999","NORAD_CAT_ID":"47122","EPOCH":"2023-05-11T15:50:32.718624","MEAN_MOTION_DOT":"0.00030254","BSTAR":"0.00203870000000","APOAPSIS":"547.610","REF_FRAME":"TEME","TLE_LINE2":"2 47122  53.0531 259.0701 0000778  99.0805 261.0272 15.06446592136138","MEAN_MOTION":"15.06446592"},{"CLASSIFICATION_TYPE":"U","MEAN_MOTION_DDOT":"0.0000000000000","SITE":"AFETR","PERIAPSIS":"546.429","PERIOD":"95.590","LAUNCH_DATE":"2020-11-25","MEAN_ELEMENT_THEORY":"SGP4","ELEMENT_SET_NO":"999","NORAD_CAT_ID":"47124","EPOCH":"2023-05-11T13:55:46.597152","MEAN_MOTION_DOT":"0.00032064","BSTAR":"0.00215940000000","REF_FRAME":"TEME","APOAPSIS":"547.753","MEAN_MOTION":"15.06439881","TLE_LINE2":"2 47124  53.0538 264.4356 0000956  86.1310 273.9788 15.06439881136057","FILE":"3905576","GP_ID":"231633739","RCS_SIZE":"LARGE","MEAN_ANOMALY":"273.9788","DECAY_DATE":null,"OBJECT_TYPE":"PAYLOAD","SEMIMAJOR_AXIS":"6925.226","RA_OF_ASC_NODE":"264.4356","EPHEMERIS_TYPE":"0","INCLINATION":"53.0538","COUNTRY_CODE":"US","ECCENTRICITY":"0.00009560","OBJECT_ID":"2020-088C","REV_AT_EPOCH":"13605","ARG_OF_PERICENTER":"86.1310","OBJECT_NAME":"STARLINK-1785","TLE_LINE1":"1 47124U 20088C   23131.58040043  .00032064  00000-0  21594-2 0  9998","CENTER_NAME":"EARTH","TIME_SYSTEM":"UTC"}];
